,school_name,zip_code,location,city,:@computed_region_vu5j_pcmz,address,:@computed_region_d7bw_bq6x,:@computed_region_kbsp_ykn9,latitude,url,:@computed_region_tx5f_5em3,category,longitude,:@computed_region_rbt8_3x7n,phone
0,Bethesda ES,20814,"{'latitude': '38.9864595389', 'human_address': '{""address"": ""7600 Arlington Rd"", ""city"": ""Bethesda"", ""state"": ""MD"", ""zip"": ""20814""}', 'needs_recoding': False, 'longitude': '-77.0998645245'}",Bethesda,1,7600 Arlington Rd,111,12,38.9864595389,http://www.montgomeryschoolsmd.org/schools/bethesdaes,1,ELEMENTARY SCHOOLS,-77.0998645245,1,301-657-4979
1,Garrett Park ES (at Grosvenor Center),20814,"{'latitude': '39.0235338133', 'human_address': '{""address"": ""5701 Grosvenor La"", ""city"": ""Bethesda"", ""state"": ""MD"", ""zip"": ""20814""}', 'needs_recoding': False, 'longitude': '-77.1141310594'}",Bethesda,1,5701 Grosvenor La,111,19,39.0235338133,http://www.montgomeryschoolsmd.org/schools/garrettparkes,1,ELEMENTARY SCHOOLS,-77.1141310594,1,301-929-2170
2,Somerset ES,20815,"{'latitude': '38.9691922144', 'human_address': '{""address"": ""5811 Warwick Pl"", ""city"": ""Chevy Chase"", ""state"": ""MD"", ""zip"": ""20815""}', 'needs_recoding': False, 'longitude': '-77.092408162'}",Chevy Chase,1,5811 Warwick Pl,110,5,38.9691922144,http://www.montgomeryschoolsmd.org/schools/somersetes,1,ELEMENTARY SCHOOLS,-77.092408162,7,301-657-4985
3,Chevy Chase ES,20815,"{'latitude': '38.9785671729', 'human_address': '{""address"": ""4015 Rosemary St"", ""city"": ""Chevy Chase"", ""state"": ""MD"", ""zip"": ""20815""}', 'needs_recoding': False, 'longitude': '-77.0802384598'}",Chevy Chase,1,4015 Rosemary St,110,5,38.9785671729,http://www.montgomeryschoolsmd.org/schools/chevychasees,1,ELEMENTARY SCHOOLS,-77.0802384598,20,301-657-4994
4,Rock Creek Forest ES,20815,"{'latitude': '38.9922962885', 'human_address': '{""address"": ""8330 Grubb Rd"", ""city"": ""Chevy Chase"", ""state"": ""MD"", ""zip"": ""20815""}', 'needs_recoding': False, 'longitude': '-77.0512978748'}",Chevy Chase,1,8330 Grubb Rd,110,5,38.9922962885,http://www.montgomeryschoolsmd.org/schools/rcforestes,1,ELEMENTARY SCHOOLS,-77.0512978748,1,301-650-6410
5,North Chevy Chase ES,20815,"{'latitude': '38.9987705251', 'human_address': '{""address"": ""3700 Jones Bridge Rd"", ""city"": ""Chevy Chase"", ""state"": ""MD"", ""zip"": ""20815""}', 'needs_recoding': False, 'longitude': '-77.073432352'}",Chevy Chase,1,3700 Jones Bridge Rd,110,5,38.9987705251,http://www.montgomeryschoolsmd.org/schools/nchevychasees,1,ELEMENTARY SCHOOLS,-77.073432352,1,301-657-4950
6,Westbrook ES,20816,"{'latitude': '38.9584710865', 'human_address': '{""address"": ""5110 Allan Ter"", ""city"": ""Bethesda"", ""state"": ""MD"", ""zip"": ""20816""}', 'needs_recoding': False, 'longitude': '-77.1028193264'}",Bethesda,1,5110 Allan Ter,107,12,38.9584710865,http://www.montgomeryschoolsmd.org/schools/westbrookes,1,ELEMENTARY SCHOOLS,-77.1028193264,1,301-320-6506
7,Wood Acres ES,20816,"{'latitude': '38.9675865435', 'human_address': '{""address"": ""5800 Cromwell Dr"", ""city"": ""Bethesda"", ""state"": ""MD"", ""zip"": ""20816""}', 'needs_recoding': False, 'longitude': '-77.1186718959'}",Bethesda,1,5800 Cromwell Dr,107,12,38.9675865435,http://www.montgomeryschoolsmd.org/schools/woodacreses,1,ELEMENTARY SCHOOLS,-77.1186718959,1,301-320-6502
8,Seven Locks ES (at Radnor Center),20817,"{'latitude': '38.9790958064', 'human_address': '{""address"": ""7000 Radnor Rd"", ""city"": ""Bethesda"", ""state"": ""MD"", ""zip"": ""20817""}', 'needs_recoding': False, 'longitude': '-77.114718632'}",Bethesda,1,7000 Radnor Rd,103,12,38.9790958064,http://www.montgomeryschoolsmd.org/schools/sevenlockses,1,ELEMENTARY SCHOOLS,-77.114718632,1,301-469-1038
9,Seven Locks ES (Construction),20817,"{'latitude': '39.0123627913', 'human_address': '{""address"": ""9500 Seven Locks Rd"", ""city"": ""Bethesda"", ""state"": ""MD"", ""zip"": ""20817""}', 'needs_recoding': False, 'longitude': '-77.16113969'}",Bethesda,1,9500 Seven Locks Rd,103,12,39.0123627913,http://www.montgomeryschoolsmd.org/schools/sevenlockses,1,ELEMENTARY SCHOOLS,-77.16113969,1,301-469-1038
10,Bannockburn ES,20817,"{'latitude': '38.974375007', 'human_address': '{""address"": ""6520 Dalroy La"", ""city"": ""Bethesda"", ""state"": ""MD"", ""zip"": ""20817""}', 'needs_recoding': False, 'longitude': '-77.1383339932'}",Bethesda,1,6520 Dalroy La,103,12,38.974375007,http://www.montgomeryschoolsmd.org/schools/bannockburnes,1,ELEMENTARY SCHOOLS,-77.1383339932,1,301-320-6555
11,Carderock Springs ES,20817,"{'latitude': '38.9832956271', 'human_address': '{""address"": ""7401 Persimmon Tree La"", ""city"": ""Bethesda"", ""state"": ""MD"", ""zip"": ""20817""}', 'needs_recoding': False, 'longitude': '-77.1717600546'}",Bethesda,1,7401 Persimmon Tree La,103,12,38.9832956271,http://www.montgomeryschoolsmd.org/schools/carderockspringses,1,ELEMENTARY SCHOOLS,-77.1717600546,1,301-469-1034
12,Wyngate ES,20817,"{'latitude': '39.0093256299', 'human_address': '{""address"": ""9300 Wadsworth Dr"", ""city"": ""Bethesda"", ""state"": ""MD"", ""zip"": ""20817""}', 'needs_recoding': False, 'longitude': '-77.1282437122'}",Bethesda,1,9300 Wadsworth Dr,103,12,39.0093256299,http://www.montgomeryschoolsmd.org/schools/wyngatees,1,ELEMENTARY SCHOOLS,-77.1282437122,1,301-571-6979
13,Bradley Hills ES,20817,"{'latitude': '38.9996852991', 'human_address': '{""address"": ""8701 Hartsdale Ave"", ""city"": ""Bethesda"", ""state"": ""MD"", ""zip"": ""20817""}', 'needs_recoding': False, 'longitude': '-77.118061653'}",Bethesda,1,8701 Hartsdale Ave,103,12,38.9996852991,http://www.montgomeryschoolsmd.org/schools/bradleyhillses,1,ELEMENTARY SCHOOLS,-77.118061653,1,301-571-6966
14,Burning Tree ES,20817,"{'latitude': '38.9899689499', 'human_address': '{""address"": ""7900 Beech Tree Rd"", ""city"": ""Bethesda"", ""state"": ""MD"", ""zip"": ""20817""}', 'needs_recoding': False, 'longitude': '-77.1433852431'}",Bethesda,1,7900 Beech Tree Rd,103,12,38.9899689499,http://www.montgomeryschoolsmd.org/schools/burningtreees,1,ELEMENTARY SCHOOLS,-77.1433852431,1,301-320-6510
15,Ashburton ES,20817,"{'latitude': '39.0194442555', 'human_address': '{""address"": ""6314 Lone Oak Dr"", ""city"": ""Bethesda"", ""state"": ""MD"", ""zip"": ""20817""}', 'needs_recoding': False, 'longitude': '-77.1277212211'}",Bethesda,1,6314 Lone Oak Dr,103,12,39.0194442555,http://www.montgomeryschoolsmd.org/schools/ashburtones,1,ELEMENTARY SCHOOLS,-77.1277212211,1,301-571-6959
16,Belmont ES,20832,"{'latitude': '39.1785814737', 'human_address': '{""address"": ""19528 Olney Mill Rd"", ""city"": ""Olney"", ""state"": ""MD"", ""zip"": ""20832""}', 'needs_recoding': False, 'longitude': '-77.0668029032'}",Olney,4,19528 Olney Mill Rd,100,58,39.1785814737,http://www.montgomeryschoolsmd.org/schools/belmontes,4,ELEMENTARY SCHOOLS,-77.0668029032,1,301-924-3140
17,Olney ES,20832,"{'latitude': '39.1492298699', 'human_address': '{""address"": ""3401 Queen Mary Dr"", ""city"": ""Olney"", ""state"": ""MD"", ""zip"": ""20832""}', 'needs_recoding': False, 'longitude': '-77.0682809714'}",Olney,4,3401 Queen Mary Dr,100,58,39.1492298699,http://www.montgomeryschoolsmd.org/schools/olneyes,4,ELEMENTARY SCHOOLS,-77.0682809714,1,301-924-3126
18,Brooke Grove ES,20832,"{'latitude': '39.1568438213', 'human_address': '{""address"": ""2700 Spartan Rd"", ""city"": ""Olney"", ""state"": ""MD"", ""zip"": ""20832""}', 'needs_recoding': False, 'longitude': '-77.0505720393'}",Olney,4,2700 Spartan Rd,100,58,39.1568438213,http://www.montgomeryschoolsmd.org/schools/brookegrovees,4,ELEMENTARY SCHOOLS,-77.0505720393,1,301-924-3154
19,Greenwood ES,20833,"{'latitude': '39.1652320194', 'human_address': '{""address"": ""3336 Gold Mine Rd"", ""city"": ""Brookeville"", ""state"": ""MD"", ""zip"": ""20833""}', 'needs_recoding': False, 'longitude': '-77.0647632594'}",Brookeville,4,3336 Gold Mine Rd,99,58,39.1652320194,http://www.montgomeryschoolsmd.org/schools/greenwoodes,4,ELEMENTARY SCHOOLS,-77.0647632594,1,301-924-3145
20,Poolesville ES,20837,"{'latitude': '39.1440313164', 'human_address': '{""address"": ""19565 Fisher Ave"", ""city"": ""Poolesville"", ""state"": ""MD"", ""zip"": ""20837""}', 'needs_recoding': False, 'longitude': '-77.4074075374'}",Poolesville,1,19565 Fisher Ave,97,34,39.1440313164,http://www.montgomeryschoolsmd.org/schools/poolesvillees,1,ELEMENTARY SCHOOLS,-77.4074075374,16,301-972-7960
21,Monocacy ES,20842,"{'latitude': '39.224265906', 'human_address': '{""address"": ""18801 Barnesville Rd"", ""city"": ""Dickerson"", ""state"": ""MD"", ""zip"": ""20842""}', 'needs_recoding': False, 'longitude': '-77.392841199'}",Dickerson,2,18801 Barnesville Rd,74,41,39.224265906,http://www.montgomeryschoolsmd.org/schools/monocacyes,2,ELEMENTARY SCHOOLS,-77.392841199,1,301-972-7990
22,Beall ES,20850,"{'latitude': '39.0877753931', 'human_address': '{""address"": ""451 Beall Ave"", ""city"": ""Rockville"", ""state"": ""MD"", ""zip"": ""20850""}', 'needs_recoding': False, 'longitude': '-77.161758368'}",Rockville,3,451 Beall Ave,71,25,39.0877753931,http://www.montgomeryschoolsmd.org/schools/bealles,3,ELEMENTARY SCHOOLS,-77.161758368,12,301-279-8460
23,Fallsmead ES,20850,"{'latitude': '39.0779606451', 'human_address': '{""address"": ""1800 Greenplace Ter"", ""city"": ""Rockville"", ""state"": ""MD"", ""zip"": ""20850""}', 'needs_recoding': False, 'longitude': '-77.1765379964'}",Rockville,3,1800 Greenplace Ter,71,25,39.0779606451,http://www.montgomeryschoolsmd.org/schools/fallsmeades,3,ELEMENTARY SCHOOLS,-77.1765379964,12,301-279-4984
24,College Gardens ES,20850,"{'latitude': '39.1028873778', 'human_address': '{""address"": ""1700 Yale Pl"", ""city"": ""Rockville"", ""state"": ""MD"", ""zip"": ""20850""}', 'needs_recoding': False, 'longitude': '-77.1627838116'}",Rockville,3,1700 Yale Pl,71,25,39.1028873778,http://www.montgomeryschoolsmd.org/schools/collegegardenses,3,ELEMENTARY SCHOOLS,-77.1627838116,12,301-279-8470
25,Maryvale ES,20850,"{'latitude': '39.0912671214', 'human_address': '{""address"": ""1000 First St"", ""city"": ""Rockville"", ""state"": ""MD"", ""zip"": ""20850""}', 'needs_recoding': False, 'longitude': '-77.1369670183'}",Rockville,3,1000 First St,71,25,39.0912671214,http://www.montgomeryschoolsmd.org/schools/maryvalees,3,ELEMENTARY SCHOOLS,-77.1369670183,12,301-279-4990
26,Meadow Hall ES,20851,"{'latitude': '39.0843521349', 'human_address': '{""address"": ""951 Twinbrook Pkwy"", ""city"": ""Rockville"", ""state"": ""MD"", ""zip"": ""20851""}', 'needs_recoding': False, 'longitude': '-77.1164059038'}",Rockville,3,951 Twinbrook Pkwy,68,25,39.0843521349,http://www.montgomeryschoolsmd.org/schools/meadowhalles,3,ELEMENTARY SCHOOLS,-77.1164059038,12,301-279-4988
27,Twinbrook ES,20851,"{'latitude': '39.0687280318', 'human_address': '{""address"": ""5911 Ridgeway Ave"", ""city"": ""Rockville"", ""state"": ""MD"", ""zip"": ""20851""}', 'needs_recoding': False, 'longitude': '-77.1200953184'}",Rockville,3,5911 Ridgeway Ave,68,25,39.0687280318,http://www.montgomeryschoolsmd.org/schools/twinbrookes,3,ELEMENTARY SCHOOLS,-77.1200953184,12,301-230-5925
28,Farmland ES,20852,"{'latitude': '39.0471937956', 'human_address': '{""address"": ""7000 Old Gate Rd"", ""city"": ""Rockville"", ""state"": ""MD"", ""zip"": ""20852""}', 'needs_recoding': False, 'longitude': '-77.1452755671'}",Rockville,1,7000 Old Gate Rd,60,19,39.0471937956,http://www.montgomeryschoolsmd.org/schools/farmlandes,1,ELEMENTARY SCHOOLS,-77.1452755671,1,301-230-5919
29,Luxmanor ES,20852,"{'latitude': '39.0448713701', 'human_address': '{""address"": ""6201 Tilden La"", ""city"": ""Rockville"", ""state"": ""MD"", ""zip"": ""20852""}', 'needs_recoding': False, 'longitude': '-77.1272246138'}",Rockville,1,6201 Tilden La,60,19,39.0448713701,http://www.montgomeryschoolsmd.org/schools/luxmanores,1,ELEMENTARY SCHOOLS,-77.1272246138,1,301-230-5914
30,Cashell ES,20853,"{'latitude': '39.1373140735', 'human_address': '{""address"": ""17101 Cashell Rd"", ""city"": ""Rockville"", ""state"": ""MD"", ""zip"": ""20853""}', 'needs_recoding': False, 'longitude': '-77.0859177884'}",Rockville,4,17101 Cashell Rd,100,58,39.1373140735,http://www.montgomeryschoolsmd.org/schools/cashelles,4,ELEMENTARY SCHOOLS,-77.0859177884,1,301-924-3130
31,Lucy V Barnsley ES,20853,"{'latitude': '39.0941208289', 'human_address': '{""address"": ""14516 Nadine Dr"", ""city"": ""Rockville"", ""state"": ""MD"", ""zip"": ""20853""}', 'needs_recoding': False, 'longitude': '-77.103587056'}",Rockville,3,14516 Nadine Dr,58,61,39.0941208289,http://www.montgomeryschoolsmd.org/schools/barnsleyes,3,ELEMENTARY SCHOOLS,-77.103587056,1,301-460-2121
32,Flower Valley ES,20853,"{'latitude': '39.1057704102', 'human_address': '{""address"": ""4615 Sunflower Dr"", ""city"": ""Rockville"", ""state"": ""MD"", ""zip"": ""20853""}', 'needs_recoding': False, 'longitude': '-77.0930515019'}",Rockville,3,4615 Sunflower Dr,58,61,39.1057704102,http://www.montgomeryschoolsmd.org/schools/flowervalleyes,3,ELEMENTARY SCHOOLS,-77.0930515019,1,301-924-3135
33,Lakewood ES,20853,"{'latitude': '39.0879540935', 'human_address': '{""address"": ""2534 Lindley Ter"", ""city"": ""Rockville"", ""state"": ""MD"", ""zip"": ""20853""}', 'needs_recoding': False, 'longitude': '-77.1940772943'}",Rockville,3,2534 Lindley Ter,71,25,39.0879540935,http://www.montgomeryschoolsmd.org/schools/lakewoodes,3,ELEMENTARY SCHOOLS,-77.1940772943,12,301-279-8465
34,Brookhaven ES,20853,"{'latitude': '39.0822509877', 'human_address': '{""address"": ""4610 Renn St"", ""city"": ""Rockville"", ""state"": ""MD"", ""zip"": ""20853""}', 'needs_recoding': False, 'longitude': '-77.0925980063'}",Rockville,3,4610 Renn St,58,61,39.0822509877,http://www.montgomeryschoolsmd.org/schools/brookhavenes,3,ELEMENTARY SCHOOLS,-77.0925980063,1,301-460-2140
35,Rock Creek Valley ES,20853,"{'latitude': '39.0832114316', 'human_address': '{""address"": ""5121 Russett Rd"", ""city"": ""Rockville"", ""state"": ""MD"", ""zip"": ""20853""}', 'needs_recoding': False, 'longitude': '-77.102608554'}",Rockville,3,5121 Russett Rd,58,61,39.0832114316,http://www.montgomeryschoolsmd.org/schools/rcvalleyes,3,ELEMENTARY SCHOOLS,-77.102608554,1,301-460-2195
36,Wheaton Woods ES,20853,"{'latitude': '39.0682491425', 'human_address': '{""address"": ""4510 Faroe Pl"", ""city"": ""Rockville"", ""state"": ""MD"", ""zip"": ""20853""}', 'needs_recoding': False, 'longitude': '-77.0902208543'}",Rockville,4,4510 Faroe Pl,58,61,39.0682491425,http://www.montgomeryschoolsmd.org/schools/wheatonwoodses,4,ELEMENTARY SCHOOLS,-77.0902208543,1,301-929-2018
37,Beverly Farms ES (at North Lake Center),20853,"{'latitude': '39.1027313861', 'human_address': '{""address"": ""15101 Bauer Dr"", ""city"": ""Rockville"", ""state"": ""MD"", ""zip"": ""20853""}', 'needs_recoding': False, 'longitude': '-77.1040071157'}",Rockville,3,15101 Bauer Dr,58,61,39.1027313861,http://www.montgomeryschoolsmd.org/schools/beverlyfarmses,3,ELEMENTARY SCHOOLS,-77.1040071157,1,301-469-1050
38,Cold Spring ES,20854,"{'latitude': '39.0592190026', 'human_address': '{""address"": ""9201 Falls Chapel Way"", ""city"": ""Potomac"", ""state"": ""MD"", ""zip"": ""20854""}', 'needs_recoding': False, 'longitude': '-77.1888641311'}",Potomac,3,9201 Falls Chapel Way,53,20,39.0592190026,http://www.montgomeryschoolsmd.org/schools/coldspringes,3,ELEMENTARY SCHOOLS,-77.1888641311,1,301-279-8480
39,Bells Mill ES,20854,"{'latitude': '39.0320119149', 'human_address': '{""address"": ""8225 Bells Mill Rd"", ""city"": ""Potomac"", ""state"": ""MD"", ""zip"": ""20854""}', 'needs_recoding': False, 'longitude': '-77.1687400874'}",Potomac,1,8225 Bells Mill Rd,53,20,39.0320119149,http://www.montgomeryschoolsmd.org/schools/bellsmilles,1,ELEMENTARY SCHOOLS,-77.1687400874,1,301-469-1046
40,Wayside ES,20854,"{'latitude': '39.0475503295', 'human_address': '{""address"": ""10011 Glen Rd"", ""city"": ""Potomac"", ""state"": ""MD"", ""zip"": ""20854""}', 'needs_recoding': False, 'longitude': '-77.2061907116'}",Potomac,1,10011 Glen Rd,53,20,39.0475503295,http://www.montgomeryschoolsmd.org/schools/waysidees,1,ELEMENTARY SCHOOLS,-77.2061907116,1,301-279-8484
41,Potomac ES,20854,"{'latitude': '39.0216533251', 'human_address': '{""address"": ""10311 River Rd"", ""city"": ""Potomac"", ""state"": ""MD"", ""zip"": ""20854""}', 'needs_recoding': False, 'longitude': '-77.2132952636'}",Potomac,1,10311 River Rd,53,20,39.0216533251,http://www.montgomeryschoolsmd.org/schools/potomaces,1,ELEMENTARY SCHOOLS,-77.2132952636,1,301-469-1042
42,Beverly Farms ES (Construction),20854,"{'latitude': '39.052145262', 'human_address': '{""address"": ""8501 Post Oak Rd"", ""city"": ""Potomac"", ""state"": ""MD"", ""zip"": ""20854""}', 'needs_recoding': False, 'longitude': '-77.1763322374'}",Potomac,1,8501 Post Oak Rd,53,20,39.052145262,http://www.montgomeryschoolsmd.org/schools/beverlyfarmses,1,ELEMENTARY SCHOOLS,-77.1763322374,1,301-469-1050
43,Ritchie Park ES,20854,"{'latitude': '39.0631353305', 'human_address': '{""address"": ""1514 Dunster Rd"", ""city"": ""Rockville"", ""state"": ""MD"", ""zip"": ""20854""}', 'needs_recoding': False, 'longitude': '-77.1744365305'}",Rockville,3,1514 Dunster Rd,53,25,39.0631353305,http://www.montgomeryschoolsmd.org/schools/ritchieparkes,3,ELEMENTARY SCHOOLS,-77.1744365305,12,301-279-8475
44,Mill Creek Towne ES,20855,"{'latitude': '39.146421794', 'human_address': '{""address"": ""17700 Park Mill Dr"", ""city"": ""Rockville"", ""state"": ""MD"", ""zip"": ""20855""}', 'needs_recoding': False, 'longitude': '-77.1538014464'}",Rockville,4,17700 Park Mill Dr,51,36,39.146421794,http://www.montgomeryschoolsmd.org/schools/mctes,4,ELEMENTARY SCHOOLS,-77.1538014464,1,301-840-7149
45,Candlewood ES,20855,"{'latitude': '39.1290023776', 'human_address': '{""address"": ""7210 Osprey Dr"", ""city"": ""Rockville"", ""state"": ""MD"", ""zip"": ""20855""}', 'needs_recoding': False, 'longitude': '-77.1470003793'}",Rockville,3,7210 Osprey Dr,51,54,39.1290023776,http://www.montgomeryschoolsmd.org/schools/candlewoodes/,3,ELEMENTARY SCHOOLS,-77.1470003793,1,301-840-7167
46,Sequoyah ES,20855,"{'latitude': '39.1392853217', 'human_address': '{""address"": ""17301 Bowie Mill Rd"", ""city"": ""Derwood"", ""state"": ""MD"", ""zip"": ""20855""}', 'needs_recoding': False, 'longitude': '-77.1177456873'}",Derwood,4,17301 Bowie Mill Rd,51,55,39.1392853217,http://www.montgomeryschoolsmd.org/schools/sequoyahes,4,ELEMENTARY SCHOOLS,-77.1177456873,1,301-840-5335
47,Sherwood ES,20860,"{'latitude': '39.1495841588', 'human_address': '{""address"": ""1401 Olney Sandy Spring Rd"", ""city"": ""Sandy Spring"", ""state"": ""MD"", ""zip"": ""20860""}', 'needs_recoding': False, 'longitude': '-77.0331164576'}",Sandy Spring,4,1401 Olney Sandy Spring Rd,50,58,39.1495841588,http://www.montgomeryschoolsmd.org/schools/sherwoodes,4,ELEMENTARY SCHOOLS,-77.0331164576,1,301-924-3195
48,Burtonsville ES,20866,"{'latitude': '39.1113736951', 'human_address': '{""address"": ""15516 Old Columbia Pik"", ""city"": ""Burtonsville"", ""state"": ""MD"", ""zip"": ""20866""}', 'needs_recoding': False, 'longitude': '-76.9364158921'}",Burtonsville,5,15516 Old Columbia Pik,47,30,39.1113736951,http://www.montgomeryschoolsmd.org/schools/burtonsvillees,5,ELEMENTARY SCHOOLS,-76.9364158921,1,301-989-5654
49,Clarksburg ES,20871,"{'latitude': '39.2368552824', 'human_address': '{""address"": ""13530 Redgrave Pl"", ""city"": ""Clarksburg"", ""state"": ""MD"", ""zip"": ""20871""}', 'needs_recoding': False, 'longitude': '-77.2815170741'}",Clarksburg,2,13530 Redgrave Pl,44,50,39.2368552824,http://www.montgomeryschoolsmd.org/schools/clarksburges,2,ELEMENTARY SCHOOLS,-77.2815170741,1,301-353-8060
50,Little Bennett ES,20871,"{'latitude': '39.246445809', 'human_address': '{""address"": ""23930 Burdette Forest Rd"", ""city"": ""Clarksburg"", ""state"": ""MD"", ""zip"": ""20871""}', 'needs_recoding': False, 'longitude': '-77.2753630947'}",Clarksburg,2,23930 Burdette Forest Rd,44,50,39.246445809,http://www.montgomeryschoolsmd.org/schools/littlebennettes,2,ELEMENTARY SCHOOLS,-77.2753630947,1,301-540-5535
51,Clearspring ES,20872,"{'latitude': '39.265783191', 'human_address': '{""address"": ""9930 Moyer Rd"", ""city"": ""Damascus"", ""state"": ""MD"", ""zip"": ""20872""}', 'needs_recoding': False, 'longitude': '-77.2073011632'}",Damascus,2,9930 Moyer Rd,42,51,39.265783191,http://www.montgomeryschoolsmd.org/schools/clearspringes,2,ELEMENTARY SCHOOLS,-77.2073011632,1,301-253-7004
52,Lois P Rockwell ES,20872,"{'latitude': '39.2562232443', 'human_address': '{""address"": ""24555 Cutsail Dr"", ""city"": ""Damascus"", ""state"": ""MD"", ""zip"": ""20872""}', 'needs_recoding': False, 'longitude': '-77.2141008476'}",Damascus,2,24555 Cutsail Dr,42,51,39.2562232443,http://www.montgomeryschoolsmd.org/schools/rockwelles,2,ELEMENTARY SCHOOLS,-77.2141008476,1,301-253-7088
53,Damascus ES,20872,"{'latitude': '39.285505588', 'human_address': '{""address"": ""10201 Bethesda Church Rd"", ""city"": ""Damascus"", ""state"": ""MD"", ""zip"": ""20872""}', 'needs_recoding': False, 'longitude': '-77.2110705499'}",Damascus,2,10201 Bethesda Church Rd,42,51,39.285505588,http://www.montgomeryschoolsmd.org/schools/damascuses,2,ELEMENTARY SCHOOLS,-77.2110705499,1,301-253-7080
54,Clopper Mill ES,20874,"{'latitude': '39.1590306504', 'human_address': '{""address"": ""18501 Cinnamon Dr"", ""city"": ""Germantown"", ""state"": ""MD"", ""zip"": ""20874""}', 'needs_recoding': False, 'longitude': '-77.2616942414'}",Germantown,2,18501 Cinnamon Dr,39,39,39.1590306504,http://www.montgomeryschoolsmd.org/schools/cloppermilles,2,ELEMENTARY SCHOOLS,-77.2616942414,1,301-353-8065
55,S Christa Mcauliffe ES,20874,"{'latitude': '39.167507691', 'human_address': '{""address"": ""12500 Wisteria Dr"", ""city"": ""Germantown"", ""state"": ""MD"", ""zip"": ""20874""}', 'needs_recoding': False, 'longitude': '-77.2609323153'}",Germantown,2,12500 Wisteria Dr,39,39,39.167507691,http://www.montgomeryschoolsmd.org/schools/mcauliffees,2,ELEMENTARY SCHOOLS,-77.2609323153,1,301-353-0910
56,Germantown ES,20874,"{'latitude': '39.1698143709', 'human_address': '{""address"": ""19110 Liberty Mill Road"", ""city"": ""Germantown"", ""state"": ""MD"", ""zip"": ""20874""}', 'needs_recoding': False, 'longitude': '-77.27642324'}",Germantown,2,19110 Liberty Mill Road,39,39,39.1698143709,http://www.montgomeryschoolsmd.org/schools/germantownes,2,ELEMENTARY SCHOOLS,-77.27642324,1,301-353-8050
57,Waters Landing ES,20874,"{'latitude': '39.1886082714', 'human_address': '{""address"": ""13100 Waters Landing Dr"", ""city"": ""Germantown"", ""state"": ""MD"", ""zip"": ""20874""}', 'needs_recoding': False, 'longitude': '-77.2686132909'}",Germantown,2,13100 Waters Landing Dr,39,39,39.1886082714,http://www.montgomeryschoolsmd.org/schools/waterslandinges,2,ELEMENTARY SCHOOLS,-77.2686132909,1,301-353-0915
58,Spark M Matsunaga ES,20874,"{'latitude': '39.1507070468', 'human_address': '{""address"": ""13902 Bromfield Road"", ""city"": ""Germantown"", ""state"": ""MD"", ""zip"": ""20874""}', 'needs_recoding': False, 'longitude': '-77.2927303852'}",Germantown,2,13902 Bromfield Road,39,39,39.1507070468,http://www.montgomeryschoolsmd.org/schools/matsunagaes,2,ELEMENTARY SCHOOLS,-77.2927303852,1,301-601-4350
59,Ronald McNair ES,20874,"{'latitude': '39.1697657621', 'human_address': '{""address"": ""13881 Hopkins Rd"", ""city"": ""Germantown"", ""state"": ""MD"", ""zip"": ""20874""}', 'needs_recoding': False, 'longitude': '-77.2905682704'}",Germantown,2,13881 Hopkins Rd,39,39,39.1697657621,http://www.montgomeryschoolsmd.org/schools/ronaldmcnaires,2,ELEMENTARY SCHOOLS,-77.2905682704,1,301-353-0854
60,Great Seneca Creek ES,20874,"{'latitude': '39.1522616814', 'human_address': '{""address"": ""13010 Dairymaid Dr"", ""city"": ""Germantown"", ""state"": ""MD"", ""zip"": ""20874""}', 'needs_recoding': False, 'longitude': '-77.2691896298'}",Germantown,2,13010 Dairymaid Dr,39,39,39.1522616814,http://www.montgomeryschoolsmd.org/schools/greatsenecacreekes,2,ELEMENTARY SCHOOLS,-77.2691896298,1,301-353-8500
61,Lake Seneca ES,20874,"{'latitude': '39.1832743058', 'human_address': '{""address"": ""13600 Wanegarden Dr"", ""city"": ""Germantown"", ""state"": ""MD"", ""zip"": ""20874""}', 'needs_recoding': False, 'longitude': '-77.2831202702'}",Germantown,2,13600 Wanegarden Dr,39,39,39.1832743058,http://www.montgomeryschoolsmd.org/schools/lakesenecaes,2,ELEMENTARY SCHOOLS,-77.2831202702,1,301-353-0929
62,Capt James E Daly ES,20876,"{'latitude': '39.1894917072', 'human_address': '{""address"": ""20301 Brandermill Dr"", ""city"": ""Germantown"", ""state"": ""MD"", ""zip"": ""20876""}', 'needs_recoding': False, 'longitude': '-77.232435198'}",Germantown,2,20301 Brandermill Dr,36,39,39.1894917072,http://www.montgomeryschoolsmd.org/schools/dalyes,2,ELEMENTARY SCHOOLS,-77.232435198,1,301-353-0939
63,William B Gibbs Jr ES,20876,"{'latitude': '39.2057196485', 'human_address': '{""address"": ""12615 Royal Crown Dr"", ""city"": ""Clarksburg"", ""state"": ""MD"", ""zip"": ""20876""}', 'needs_recoding': False, 'longitude': '-77.2596251938'}",Clarksburg,2,12615 Royal Crown Dr,36,39,39.2057196485,http://www.montgomeryschoolsmd.org/schools/gibbses/,2,ELEMENTARY SCHOOLS,-77.2596251938,1,301-353-0800
64,Dr Sally K Ride ES,20876,"{'latitude': '39.2068179297', 'human_address': '{""address"": ""21301 Seneca Crossing Dr"", ""city"": ""Germantown"", ""state"": ""MD"", ""zip"": ""20876""}', 'needs_recoding': False, 'longitude': '-77.2373667612'}",Germantown,2,21301 Seneca Crossing Dr,36,39,39.2068179297,http://www.montgomeryschoolsmd.org/schools/ridees,2,ELEMENTARY SCHOOLS,-77.2373667612,1,301-353-0994
65,Fox Chapel ES,20876,"{'latitude': '39.1722018594', 'human_address': '{""address"": ""19315 Archdale Rd"", ""city"": ""Germantown"", ""state"": ""MD"", ""zip"": ""20876""}', 'needs_recoding': False, 'longitude': '-77.2421897485'}",Germantown,2,19315 Archdale Rd,36,39,39.1722018594,http://www.montgomeryschoolsmd.org/schools/foxchapeles,2,ELEMENTARY SCHOOLS,-77.2421897485,1,301-353-8055
66,Cedar Grove ES,20876,"{'latitude': '39.2493904272', 'human_address': '{""address"": ""24001 Ridge Rd"", ""city"": ""Germantown"", ""state"": ""MD"", ""zip"": ""20876""}', 'needs_recoding': False, 'longitude': '-77.2322649942'}",Germantown,2,24001 Ridge Rd,36,44,39.2493904272,http://www.montgomeryschoolsmd.org/schools/cedargrovees,2,ELEMENTARY SCHOOLS,-77.2322649942,1,301-253-7000
67,South Lake ES,20877,"{'latitude': '39.1558163309', 'human_address': '{""address"": ""18201 Contour Rd"", ""city"": ""Gaithersburg"", ""state"": ""MD"", ""zip"": ""20877""}', 'needs_recoding': False, 'longitude': '-77.1969833619'}",Gaithersburg,2,18201 Contour Rd,28,38,39.1558163309,http://www.montgomeryschoolsmd.org/schools/southlakees,2,ELEMENTARY SCHOOLS,-77.1969833619,1,301-840-7141
68,Rosemont ES,20877,"{'latitude': '39.1251152677', 'human_address': '{""address"": ""16400 Alden Ave"", ""city"": ""Gaithersburg"", ""state"": ""MD"", ""zip"": ""20877""}', 'needs_recoding': False, 'longitude': '-77.1852514951'}",Gaithersburg,3,16400 Alden Ave,35,36,39.1251152677,http://www.montgomeryschoolsmd.org/schools/rosemontes,3,ELEMENTARY SCHOOLS,-77.1852514951,21,301-840-7123
69,Summit Hall ES,20877,"{'latitude': '39.127282494', 'human_address': '{""address"": ""101 W Deer Park Rd"", ""city"": ""Gaithersburg"", ""state"": ""MD"", ""zip"": ""20877""}', 'needs_recoding': False, 'longitude': '-77.195457283'}",Gaithersburg,3,101 W Deer Park Rd,35,36,39.127282494,http://www.montgomeryschoolsmd.org/schools/summithalles,3,ELEMENTARY SCHOOLS,-77.195457283,21,301-840-7127
70,Washington Grove ES,20877,"{'latitude': '39.1324887754', 'human_address': '{""address"": ""8712 Oakmont St"", ""city"": ""Gaithersburg"", ""state"": ""MD"", ""zip"": ""20877""}', 'needs_recoding': False, 'longitude': '-77.1777402319'}",Gaithersburg,3,8712 Oakmont St,35,36,39.1324887754,http://www.montgomeryschoolsmd.org/schools/washingtongrovees,3,ELEMENTARY SCHOOLS,-77.1777402319,1,301-840-7120
71,Gaithersburg ES,20877,"{'latitude': '39.1435715404', 'human_address': '{""address"": ""35 N Summit Ave"", ""city"": ""Gaithersburg"", ""state"": ""MD"", ""zip"": ""20877""}', 'needs_recoding': False, 'longitude': '-77.1920511474'}",Gaithersburg,3,35 N Summit Ave,35,36,39.1435715404,http://www.montgomeryschoolsmd.org/schools/gaithersburges,3,ELEMENTARY SCHOOLS,-77.1920511474,21,301-840-7136
72,Darnestown ES,20878,"{'latitude': '39.1025388648', 'human_address': '{""address"": ""15030 Turkey Foot Rd"", ""city"": ""Gaithersburg"", ""state"": ""MD"", ""zip"": ""20878""}', 'needs_recoding': False, 'longitude': '-77.2847480232'}",Gaithersburg,1,15030 Turkey Foot Rd,33,28,39.1025388648,http://www.montgomeryschoolsmd.org/schools/darnestownes,1,ELEMENTARY SCHOOLS,-77.2847480232,1,301-840-7157
73,Diamond ES,20878,"{'latitude': '39.1357087649', 'human_address': '{""address"": ""4 Marquis Dr"", ""city"": ""Gaithersburg"", ""state"": ""MD"", ""zip"": ""20878""}', 'needs_recoding': False, 'longitude': '-77.2389185172'}",Gaithersburg,3,4 Marquis Dr,33,36,39.1357087649,http://www.montgomeryschoolsmd.org/schools/diamondes,3,ELEMENTARY SCHOOLS,-77.2389185172,21,301-840-7177
74,Jones Lane ES,20878,"{'latitude': '39.1033700765', 'human_address': '{""address"": ""15110 Jones La"", ""city"": ""Gaithersburg"", ""state"": ""MD"", ""zip"": ""20878""}', 'needs_recoding': False, 'longitude': '-77.2658471483'}",Gaithersburg,2,15110 Jones La,33,28,39.1033700765,http://www.montgomeryschoolsmd.org/schools/joneslanees,2,ELEMENTARY SCHOOLS,-77.2658471483,1,301-840-8160
75,Fields Road ES,20878,"{'latitude': '39.118795239', 'human_address': '{""address"": ""1 School Dr"", ""city"": ""Gaithersburg"", ""state"": ""MD"", ""zip"": ""20878""}', 'needs_recoding': False, 'longitude': '-77.2152401168'}",Gaithersburg,3,1 School Dr,33,36,39.118795239,http://www.montgomeryschoolsmd.org/schools/fieldsroades,3,ELEMENTARY SCHOOLS,-77.2152401168,21,301-840-7131
76,Brown Station ES,20878,"{'latitude': '39.1388830108', 'human_address': '{""address"": ""851 Quince Orchard Blv"", ""city"": ""Gaithersburg"", ""state"": ""MD"", ""zip"": ""20878""}', 'needs_recoding': False, 'longitude': '-77.2307127305'}",Gaithersburg,3,851 Quince Orchard Blv,33,36,39.1388830108,http://www.montgomeryschoolsmd.org/schools/brownstationes,3,ELEMENTARY SCHOOLS,-77.2307127305,21,301-840-7172
77,Thurgood Marshall ES,20878,"{'latitude': '39.1262200858', 'human_address': '{""address"": ""12260 McDonald Chapel Dr"", ""city"": ""Gaithersburg"", ""state"": ""MD"", ""zip"": ""20878""}', 'needs_recoding': False, 'longitude': '-77.2598691505'}",Gaithersburg,3,12260 McDonald Chapel Dr,33,28,39.1262200858,http://www.montgomeryschoolsmd.org/schools/thurgoodmarshalles,3,ELEMENTARY SCHOOLS,-77.2598691505,1,301-670-8282
78,Stone Mill ES,20878,"{'latitude': '39.0916377183', 'human_address': '{""address"": ""14323 Stonebridge View Dr"", ""city"": ""North Potomac"", ""state"": ""MD"", ""zip"": ""20878""}', 'needs_recoding': False, 'longitude': '-77.2144612215'}",North Potomac,3,14323 Stonebridge View Dr,33,24,39.0916377183,http://www.montgomeryschoolsmd.org/schools/stonemilles,3,ELEMENTARY SCHOOLS,-77.2144612215,1,301-279-4975
79,Travilah ES,20878,"{'latitude': '39.0824785544', 'human_address': '{""address"": ""13801 DuFief Mill Rd"", ""city"": ""North Potomac"", ""state"": ""MD"", ""zip"": ""20878""}', 'needs_recoding': False, 'longitude': '-77.2486226133'}",North Potomac,2,13801 DuFief Mill Rd,33,24,39.0824785544,http://www.montgomeryschoolsmd.org/schools/travilahes,2,ELEMENTARY SCHOOLS,-77.2486226133,1,301-840-7153
80,Dufief ES,20878,"{'latitude': '39.1018337081', 'human_address': '{""address"": ""15001 DuFief Dr"", ""city"": ""Gaithersburg"", ""state"": ""MD"", ""zip"": ""20878""}', 'needs_recoding': False, 'longitude': '-77.2375326482'}",Gaithersburg,2,15001 DuFief Dr,33,24,39.1018337081,http://www.montgomeryschoolsmd.org/schools/dufiefes,2,ELEMENTARY SCHOOLS,-77.2375326482,1,301-279-4980
81,Rachel Carson ES,20878,"{'latitude': '39.1170772504', 'human_address': '{""address"": ""100 Tschiffely Square Rd"", ""city"": ""Gaithersburg"", ""state"": ""MD"", ""zip"": ""20878""}', 'needs_recoding': False, 'longitude': '-77.2470359348'}",Gaithersburg,3,100 Tschiffely Square Rd,33,36,39.1170772504,http://www.montgomeryschoolsmd.org/schools/rachelcarsones,3,ELEMENTARY SCHOOLS,-77.2470359348,21,301-840-5333
82,Judith A Resnik ES,20879,"{'latitude': '39.181576738', 'human_address': '{""address"": ""7301 Hadley Farms Dr"", ""city"": ""Gaithersburg"", ""state"": ""MD"", ""zip"": ""20879""}', 'needs_recoding': False, 'longitude': '-77.1519858022'}",Gaithersburg,4,7301 Hadley Farms Dr,31,36,39.181576738,http://www.montgomeryschoolsmd.org/schools/resnikes,4,ELEMENTARY SCHOOLS,-77.1519858022,1,301-670-8200
83,Woodfield ES,20879,"{'latitude': '39.2527827289', 'human_address': '{""address"": ""24200 Woodfield Rd"", ""city"": ""Gaithersburg"", ""state"": ""MD"", ""zip"": ""20879""}', 'needs_recoding': False, 'longitude': '-77.1982813985'}",Gaithersburg,2,24200 Woodfield Rd,29,46,39.2527827289,http://www.montgomeryschoolsmd.org/schools/woodfieldes,2,ELEMENTARY SCHOOLS,-77.1982813985,1,301-253-7085
84,Flower Hill ES,20879,"{'latitude': '39.1590075849', 'human_address': '{""address"": ""18425 Flower Hill Way"", ""city"": ""Gaithersburg"", ""state"": ""MD"", ""zip"": ""20879""}', 'needs_recoding': False, 'longitude': '-77.1713034798'}",Gaithersburg,4,18425 Flower Hill Way,31,36,39.1590075849,http://www.montgomeryschoolsmd.org/schools/flowerhilles,4,ELEMENTARY SCHOOLS,-77.1713034798,1,301-840-7161
85,Strawberry Knoll ES,20879,"{'latitude': '39.1658673386', 'human_address': '{""address"": ""18820 Strawberry Knoll Rd"", ""city"": ""Gaithersburg"", ""state"": ""MD"", ""zip"": ""20879""}', 'needs_recoding': False, 'longitude': '-77.1825348422'}",Gaithersburg,2,18820 Strawberry Knoll Rd,31,36,39.1658673386,http://www.montgomeryschoolsmd.org/schools/strawberryknolles,2,ELEMENTARY SCHOOLS,-77.1825348422,1,301-840-7112
86,Whetstone ES,20879,"{'latitude': '39.1718688083', 'human_address': '{""address"": ""19201 Thomas Farm Dr"", ""city"": ""Gaithersburg"", ""state"": ""MD"", ""zip"": ""20879""}', 'needs_recoding': False, 'longitude': '-77.1969947933'}",Gaithersburg,2,19201 Thomas Farm Dr,28,38,39.1718688083,http://www.montgomeryschoolsmd.org/schools/whetstonees,2,ELEMENTARY SCHOOLS,-77.1969947933,1,301-840-7191
87,Laytonsville ES,20882,"{'latitude': '39.2070466834', 'human_address': '{""address"": ""21401 Laytonsville Rd"", ""city"": ""Laytonsville"", ""state"": ""MD"", ""zip"": ""20882""}', 'needs_recoding': False, 'longitude': '-77.1403377171'}",Laytonsville,4,21401 Laytonsville Rd,29,46,39.2070466834,http://www.montgomeryschoolsmd.org/schools/laytonsvillees,4,ELEMENTARY SCHOOLS,-77.1403377171,22,301-840-7145
88,Goshen ES,20882,"{'latitude': '39.194373374', 'human_address': '{""address"": ""8701 Warfield Rd"", ""city"": ""Gaithersburg"", ""state"": ""MD"", ""zip"": ""20882""}', 'needs_recoding': False, 'longitude': '-77.1798890434'}",Gaithersburg,2,8701 Warfield Rd,29,46,39.194373374,http://www.montgomeryschoolsmd.org/schools/goshenes,2,ELEMENTARY SCHOOLS,-77.1798890434,1,301-840-8165
89,Watkins Mill ES,20886,"{'latitude': '39.1672209879', 'human_address': '{""address"": ""19001 Watkins Mill Rd"", ""city"": ""Montgomery Village"", ""state"": ""MD"", ""zip"": ""20886""}', 'needs_recoding': False, 'longitude': '-77.2110251862'}",Montgomery Village,2,19001 Watkins Mill Rd,28,38,39.1672209879,http://www.montgomeryschoolsmd.org/schools/watkinsmilles,2,ELEMENTARY SCHOOLS,-77.2110251862,1,301-840-7181
90,Stedwick ES,20886,"{'latitude': '39.1743636993', 'human_address': '{""address"": ""10631 Stedwick Rd"", ""city"": ""Montgomery Village"", ""state"": ""MD"", ""zip"": ""20886""}', 'needs_recoding': False, 'longitude': '-77.2111923449'}",Montgomery Village,2,10631 Stedwick Rd,28,38,39.1743636993,http://www.montgomeryschoolsmd.org/schools/stedwickes,2,ELEMENTARY SCHOOLS,-77.2111923449,1,301-840-7187
91,Kensington Parkwood ES,20895,"{'latitude': '39.0217956579', 'human_address': '{""address"": ""4710 Saul Rd"", ""city"": ""Kensington"", ""state"": ""MD"", ""zip"": ""20895""}', 'needs_recoding': False, 'longitude': '-77.0949119854'}",Kensington,1,4710 Saul Rd,111,15,39.0217956579,http://www.montgomeryschoolsmd.org/schools/parkwoodes,1,ELEMENTARY SCHOOLS,-77.0949119854,1,301-571-6949
92,Rock View ES,20895,"{'latitude': '39.0395140953', 'human_address': '{""address"": ""3901 Denfeld Ave"", ""city"": ""Kensington"", ""state"": ""MD"", ""zip"": ""20895""}', 'needs_recoding': False, 'longitude': '-77.0769950641'}",Kensington,4,3901 Denfeld Ave,25,15,39.0395140953,http://www.montgomeryschoolsmd.org/schools/rockviewes,4,ELEMENTARY SCHOOLS,-77.0769950641,1,301-929-2002
93,Garrett Park ES (Construction),20896,"{'latitude': '39.0330455094', 'human_address': '{""address"": ""4810 Oxford St"", ""city"": ""Garrett Park"", ""state"": ""MD"", ""zip"": ""20896""}', 'needs_recoding': False, 'longitude': '-77.0965815552'}",Garrett Park,1,4810 Oxford St,60,14,39.0330455094,http://www.montgomeryschoolsmd.org/schools/garrettparkes,1,ELEMENTARY SCHOOLS,-77.0965815552,1,301-929-2170
94,Pine Crest ES,20901,"{'latitude': '39.0213110705', 'human_address': '{""address"": ""201 Woodmoor Dr"", ""city"": ""Silver Spring"", ""state"": ""MD"", ""zip"": ""20901""}', 'needs_recoding': False, 'longitude': '-77.0050375472'}",Silver Spring,5,201 Woodmoor Dr,21,13,39.0213110705,http://www.montgomeryschoolsmd.org/schools/pinecrestes,5,ELEMENTARY SCHOOLS,-77.0050375472,1,301-649-8066
95,Burnt Mills ES,20901,"{'latitude': '39.0394753102', 'human_address': '{""address"": ""11211 Childs St"", ""city"": ""Silver Spring"", ""state"": ""MD"", ""zip"": ""20901""}', 'needs_recoding': False, 'longitude': '-77.0017610753'}",Silver Spring,5,11211 Childs St,21,18,39.0394753102,http://www.montgomeryschoolsmd.org/schools/burntmillses,5,ELEMENTARY SCHOOLS,-77.0017610753,1,301-649-8192
96,Forest Knolls ES,20901,"{'latitude': '39.0333104381', 'human_address': '{""address"": ""10830 Eastwood Ave"", ""city"": ""Silver Spring"", ""state"": ""MD"", ""zip"": ""20901""}', 'needs_recoding': False, 'longitude': '-77.0204193723'}",Silver Spring,5,10830 Eastwood Ave,21,17,39.0333104381,http://www.montgomeryschoolsmd.org/schools/forestknollses,5,ELEMENTARY SCHOOLS,-77.0204193723,1,301-649-8060
97,Montgomery Knolls ES,20901,"{'latitude': '39.0057482268', 'human_address': '{""address"": ""807 Daleview Dr"", ""city"": ""Silver Spring"", ""state"": ""MD"", ""zip"": ""20901""}', 'needs_recoding': False, 'longitude': '-76.9931786787'}",Silver Spring,5,807 Daleview Dr,21,8,39.0057482268,http://www.montgomeryschoolsmd.org/schools/knollses,5,ELEMENTARY SCHOOLS,-76.9931786787,1,301-431-7667
98,Oak View ES,20901,"{'latitude': '39.0045260505', 'human_address': '{""address"": ""400 E Wayne Ave"", ""city"": ""Silver Spring"", ""state"": ""MD"", ""zip"": ""20901""}', 'needs_recoding': False, 'longitude': '-77.0024156168'}",Silver Spring,5,400 E Wayne Ave,21,8,39.0045260505,http://www.montgomeryschoolsmd.org/schools/oakviewes,5,ELEMENTARY SCHOOLS,-77.0024156168,1,301-650-6434
99,Highland View ES,20901,"{'latitude': '39.0042511332', 'human_address': '{""address"": ""9010 Providence Ave"", ""city"": ""Silver Spring"", ""state"": ""MD"", ""zip"": ""20901""}', 'needs_recoding': False, 'longitude': '-77.0103578619'}",Silver Spring,5,9010 Providence Ave,21,8,39.0042511332,http://www.montgomeryschoolsmd.org/schools/highlandviewes,5,ELEMENTARY SCHOOLS,-77.0103578619,1,301-650-6426
100,Oakland Terrace ES,20902,"{'latitude': '39.0286194203', 'human_address': '{""address"": ""2720 Plyers Mill Rd"", ""city"": ""Silver Spring"", ""state"": ""MD"", ""zip"": ""20902""}', 'needs_recoding': False, 'longitude': '-77.0573923387'}",Silver Spring,5,2720 Plyers Mill Rd,17,10,39.0286194203,http://www.montgomeryschoolsmd.org/schools/oaklandes,5,ELEMENTARY SCHOOLS,-77.0573923387,1,301-929-2161
101,Highland ES,20902,"{'latitude': '39.0511227', 'human_address': '{""address"": ""3100 Medway St"", ""city"": ""Silver Spring"", ""state"": ""MD"", ""zip"": ""20902""}', 'needs_recoding': False, 'longitude': '-77.0639085292'}",Silver Spring,4,3100 Medway St,17,23,39.0511227,http://www.montgomeryschoolsmd.org/schools/highlandes,4,ELEMENTARY SCHOOLS,-77.0639085292,1,301-929-2040
102,Glen Haven ES,20902,"{'latitude': '39.0338425388', 'human_address': '{""address"": ""10900 Inwood Ave"", ""city"": ""Silver Spring"", ""state"": ""MD"", ""zip"": ""20902""}', 'needs_recoding': False, 'longitude': '-77.0370393611'}",Silver Spring,4,10900 Inwood Ave,17,16,39.0338425388,http://www.montgomeryschoolsmd.org/schools/glenhavenes,4,ELEMENTARY SCHOOLS,-77.0370393611,1,301-649-8051
103,Arcola ES,20902,"{'latitude': '39.0455588679', 'human_address': '{""address"": ""1820 Franwall Ave"", ""city"": ""Silver Spring"", ""state"": ""MD"", ""zip"": ""20902""}', 'needs_recoding': False, 'longitude': '-77.0393881959'}",Silver Spring,4,1820 Franwall Ave,17,16,39.0455588679,http://www.montgomeryschoolsmd.org/schools/arcolaes,4,ELEMENTARY SCHOOLS,-77.0393881959,1,301-649-8590
104,Downcounty Consortium ES (2012),20902,"{'latitude': '39.0191171311', 'human_address': '{""address"": ""2600 Hayden Dr"", ""city"": ""Silver Spring"", ""state"": ""MD"", ""zip"": ""20902""}', 'needs_recoding': False, 'longitude': '-77.0545584109'}",Silver Spring,5,2600 Hayden Dr,17,10,39.0191171311,http://www.montgomeryschoolsmd.org/,5,ELEMENTARY SCHOOLS,-77.0545584109,1,301-309-6277
105,Kemp Mill ES,20902,"{'latitude': '39.0436381558', 'human_address': '{""address"": ""411 Sisson St"", ""city"": ""Silver Spring"", ""state"": ""MD"", ""zip"": ""20902""}', 'needs_recoding': False, 'longitude': '-77.0170471225'}",Silver Spring,4,411 Sisson St,17,17,39.0436381558,http://www.montgomeryschoolsmd.org/schools/kempmilles,4,ELEMENTARY SCHOOLS,-77.0170471225,1,301-649-8046
106,Glenallan ES,20902,"{'latitude': '39.0613561538', 'human_address': '{""address"": ""12520 Heurich Rd"", ""city"": ""Silver Spring"", ""state"": ""MD"", ""zip"": ""20902""}', 'needs_recoding': False, 'longitude': '-77.0413621208'}",Silver Spring,4,12520 Heurich Rd,17,23,39.0613561538,http://www.montgomeryschoolsmd.org/schools/glenallanes,4,ELEMENTARY SCHOOLS,-77.0413621208,1,301-929-2014
107,Roscoe R Nix ES,20903,"{'latitude': '39.0168668083', 'human_address': '{""address"": ""1100 Corliss St"", ""city"": ""Silver Spring"", ""state"": ""MD"", ""zip"": ""20903""}', 'needs_recoding': False, 'longitude': '-76.9896552883'}",Silver Spring,5,1100 Corliss St,15,9,39.0168668083,http://www.montgomeryschoolsmd.org/schools/nixes,5,ELEMENTARY SCHOOLS,-76.9896552883,1,301-422-5070
108,Broad Acres ES,20903,"{'latitude': '39.0093594505', 'human_address': '{""address"": ""710 Beacon Rd"", ""city"": ""Silver Spring"", ""state"": ""MD"", ""zip"": ""20903""}', 'needs_recoding': False, 'longitude': '-76.9851884399'}",Silver Spring,5,710 Beacon Rd,15,9,39.0093594505,http://www.montgomeryschoolsmd.org/schools/broadacreses,5,ELEMENTARY SCHOOLS,-76.9851884399,1,301-431-7616
109,Cresthaven ES,20903,"{'latitude': '39.0274886611', 'human_address': '{""address"": ""1234 Cresthaven Dr"", ""city"": ""Silver Spring"", ""state"": ""MD"", ""zip"": ""20903""}', 'needs_recoding': False, 'longitude': '-76.9876315723'}",Silver Spring,5,1234 Cresthaven Dr,15,18,39.0274886611,http://www.montgomeryschoolsmd.org/schools/cresthavenes,5,ELEMENTARY SCHOOLS,-76.9876315723,1,301-431-7622
110,New Hampshire Estates ES,20903,"{'latitude': '38.9981968148', 'human_address': '{""address"": ""8720 Carroll Ave"", ""city"": ""Silver Spring"", ""state"": ""MD"", ""zip"": ""20903""}', 'needs_recoding': False, 'longitude': '-76.9923045793'}",Silver Spring,5,8720 Carroll Ave,15,8,38.9981968148,http://www.montgomeryschoolsmd.org/schools/nhees,5,ELEMENTARY SCHOOLS,-76.9923045793,1,301-431-7607
111,Cannon Road ES (at Fairland Center),20904,"{'latitude': '39.0746038591', 'human_address': '{""address"": ""13313 Old Columbia Pike"", ""city"": ""Silver Spring"", ""state"": ""MD"", ""zip"": ""20904""}', 'needs_recoding': False, 'longitude': '-76.9578934897'}",Silver Spring,5,13313 Old Columbia Pike,12,53,39.0746038591,http://www.montgomeryschoolsmd.org/schools/cannonroades,5,ELEMENTARY SCHOOLS,-76.9578934897,1,301-989-5662
112,William T Page ES,20904,"{'latitude': '39.0749086167', 'human_address': '{""address"": ""13400 Tamarack Rd"", ""city"": ""Silver Spring"", ""state"": ""MD"", ""zip"": ""20904""}', 'needs_recoding': False, 'longitude': '-76.9835905797'}",Silver Spring,5,13400 Tamarack Rd,12,53,39.0749086167,http://www.montgomeryschoolsmd.org/schools/pagees,5,ELEMENTARY SCHOOLS,-76.9835905797,1,301-989-5672
113,Cannon Road ES (Construction),20904,"{'latitude': '39.0687671595', 'human_address': '{""address"": ""901 Cannon Rd"", ""city"": ""Silver Spring"", ""state"": ""MD"", ""zip"": ""20904""}', 'needs_recoding': False, 'longitude': '-76.9941729238'}",Silver Spring,5,901 Cannon Rd,12,26,39.0687671595,http://www.montgomeryschoolsmd.org/schools/cannonroades,5,ELEMENTARY SCHOOLS,-76.9941729238,1,301-989-5662
114,Greencastle ES,20904,"{'latitude': '39.0804194508', 'human_address': '{""address"": ""13611 Robey Rd"", ""city"": ""Silver Spring"", ""state"": ""MD"", ""zip"": ""20904""}', 'needs_recoding': False, 'longitude': '-76.9417549222'}",Silver Spring,5,13611 Robey Rd,12,53,39.0804194508,http://www.montgomeryschoolsmd.org/schools/greencastlees,5,ELEMENTARY SCHOOLS,-76.9417549222,1,301-595-2940
115,Stonegate ES,20904,"{'latitude': '39.0995467662', 'human_address': '{""address"": ""14811 Notley Rd"", ""city"": ""Silver Spring"", ""state"": ""MD"", ""zip"": ""20904""}', 'needs_recoding': False, 'longitude': '-77.0157475178'}",Silver Spring,4,14811 Notley Rd,8,26,39.0995467662,http://www.montgomeryschoolsmd.org/schools/stonegatees,4,ELEMENTARY SCHOOLS,-77.0157475178,1,301-989-5668
116,Westover ES,20904,"{'latitude': '39.0748642774', 'human_address': '{""address"": ""401 Hawkesbury La"", ""city"": ""Silver Spring"", ""state"": ""MD"", ""zip"": ""20904""}', 'needs_recoding': False, 'longitude': '-77.0180223922'}",Silver Spring,4,401 Hawkesbury La,12,26,39.0748642774,http://www.montgomeryschoolsmd.org/schools/westoveres,4,ELEMENTARY SCHOOLS,-77.0180223922,1,301-989-5676
117,Galway ES,20904,"{'latitude': '39.0639572983', 'human_address': '{""address"": ""12612 Galway Dr"", ""city"": ""Silver Spring"", ""state"": ""MD"", ""zip"": ""20904""}', 'needs_recoding': False, 'longitude': '-76.9463103201'}",Silver Spring,5,12612 Galway Dr,12,21,39.0639572983,http://www.montgomeryschoolsmd.org/schools/galwayes,5,ELEMENTARY SCHOOLS,-76.9463103201,1,301-595-2930
118,Jackson Road ES,20904,"{'latitude': '39.0564225207', 'human_address': '{""address"": ""900 Jackson Rd"", ""city"": ""Silver Spring"", ""state"": ""MD"", ""zip"": ""20904""}', 'needs_recoding': False, 'longitude': '-76.9918070316'}",Silver Spring,5,900 Jackson Rd,12,18,39.0564225207,http://www.montgomeryschoolsmd.org/schools/jacksonroades,5,ELEMENTARY SCHOOLS,-76.9918070316,1,301-989-5650
119,Cloverly ES,20904,"{'latitude': '39.1076890075', 'human_address': '{""address"": ""800 Briggs Chaney Rd"", ""city"": ""Silver Spring"", ""state"": ""MD"", ""zip"": ""20904""}', 'needs_recoding': False, 'longitude': '-76.9942569561'}",Silver Spring,5,800 Briggs Chaney Rd,8,29,39.1076890075,http://www.montgomeryschoolsmd.org/schools/cloverlyes,5,ELEMENTARY SCHOOLS,-76.9942569561,1,301-989-5770
120,Dr Charles R Drew ES,20905,"{'latitude': '39.0916281714', 'human_address': '{""address"": ""1200 Swingingdale Dr"", ""city"": ""Silver Spring"", ""state"": ""MD"", ""zip"": ""20905""}', 'needs_recoding': False, 'longitude': '-76.9871082262'}",Silver Spring,5,1200 Swingingdale Dr,8,29,39.0916281714,http://www.montgomeryschoolsmd.org/schools/drewes,5,ELEMENTARY SCHOOLS,-76.9871082262,1,301-989-6030
121,Fairland ES,20905,"{'latitude': '39.0906439188', 'human_address': '{""address"": ""14315 Fairdale Rd"", ""city"": ""Silver Spring"", ""state"": ""MD"", ""zip"": ""20905""}', 'needs_recoding': False, 'longitude': '-76.9561706003'}",Silver Spring,5,14315 Fairdale Rd,8,53,39.0906439188,http://www.montgomeryschoolsmd.org/schools/fairlandes,5,ELEMENTARY SCHOOLS,-76.9561706003,1,301-989-5658
122,Georgian Forest ES,20906,"{'latitude': '39.0756428629', 'human_address': '{""address"": ""3100 Regina Dr"", ""city"": ""Silver Spring"", ""state"": ""MD"", ""zip"": ""20906""}', 'needs_recoding': False, 'longitude': '-77.0614546922'}",Silver Spring,4,3100 Regina Dr,6,23,39.0756428629,http://www.montgomeryschoolsmd.org/schools/georgianforestes,4,ELEMENTARY SCHOOLS,-77.0614546922,1,301-460-2170
123,Harmony Hills ES,20906,"{'latitude': '39.0766059586', 'human_address': '{""address"": ""13407 Lydia St"", ""city"": ""Silver Spring"", ""state"": ""MD"", ""zip"": ""20906""}', 'needs_recoding': False, 'longitude': '-77.0761131795'}",Silver Spring,4,13407 Lydia St,6,61,39.0766059586,http://www.montgomeryschoolsmd.org/schools/harmonyhillses,4,ELEMENTARY SCHOOLS,-77.0761131795,1,301-929-2157
124,Bel Pre ES,20906,"{'latitude': '39.0816042674', 'human_address': '{""address"": ""13801 Rippling Brook Dr"", ""city"": ""Silver Spring"", ""state"": ""MD"", ""zip"": ""20906""}', 'needs_recoding': False, 'longitude': '-77.0547238659'}",Silver Spring,4,13801 Rippling Brook Dr,6,59,39.0816042674,http://www.montgomeryschoolsmd.org/schools/belprees,4,ELEMENTARY SCHOOLS,-77.0547238659,1,301-460-2145
125,Sargent Shriver ES,20906,"{'latitude': '39.0615504152', 'human_address': '{""address"": ""12518 Greenly Dr"", ""city"": ""Silver Spring"", ""state"": ""MD"", ""zip"": ""20906""}', 'needs_recoding': False, 'longitude': '-77.0791590245'}",Silver Spring,4,12518 Greenly Dr,6,23,39.0615504152,http://www.montgomeryschoolsmd.org/schools/shriveres,4,ELEMENTARY SCHOOLS,-77.0791590245,1,301-929-4426
126,Viers Mill ES,20906,"{'latitude': '39.048502748', 'human_address': '{""address"": ""11711 Joseph Mill Rd"", ""city"": ""Silver Spring"", ""state"": ""MD"", ""zip"": ""20906""}', 'needs_recoding': False, 'longitude': '-77.0852891291'}",Silver Spring,4,11711 Joseph Mill Rd,6,56,39.048502748,http://www.montgomeryschoolsmd.org/schools/viersmilles,4,ELEMENTARY SCHOOLS,-77.0852891291,1,301-929-2165
127,Weller Road ES,20906,"{'latitude': '39.0654368354', 'human_address': '{""address"": ""3301 Weller Rd"", ""city"": ""Silver Spring"", ""state"": ""MD"", ""zip"": ""20906""}', 'needs_recoding': False, 'longitude': '-77.06706298'}",Silver Spring,4,3301 Weller Rd,6,23,39.0654368354,http://www.montgomeryschoolsmd.org/schools/wellerroades,4,ELEMENTARY SCHOOLS,-77.06706298,1,301-929-2010
128,Strathmore ES,20906,"{'latitude': '39.0860669739', 'human_address': '{""address"": ""3200 Beaverwood La"", ""city"": ""Silver Spring"", ""state"": ""MD"", ""zip"": ""20906""}', 'needs_recoding': False, 'longitude': '-77.0654349871'}",Silver Spring,4,3200 Beaverwood La,6,59,39.0860669739,http://www.montgomeryschoolsmd.org/schools/strathmorees,4,ELEMENTARY SCHOOLS,-77.0654349871,1,301-460-2135
129,Rosemary Hills ES,20910,"{'latitude': '39.0013306373', 'human_address': '{""address"": ""2111 Porter Rd"", ""city"": ""Silver Spring"", ""state"": ""MD"", ""zip"": ""20910""}', 'needs_recoding': False, 'longitude': '-77.0451517607'}",Silver Spring,5,2111 Porter Rd,3065,6,39.0013306373,http://www.montgomeryschoolsmd.org/schools/rosemaryhillses,5,ELEMENTARY SCHOOLS,-77.0451517607,1,301-650-6400
130,East Silver Spring ES,20910,"{'latitude': '38.9923950104', 'human_address': '{""address"": ""631 Silver Spring Ave"", ""city"": ""Silver Spring"", ""state"": ""MD"", ""zip"": ""20910""}', 'needs_recoding': False, 'longitude': '-77.0152105919'}",Silver Spring,5,631 Silver Spring Ave,3065,7,38.9923950104,http://www.montgomeryschoolsmd.org/schools/eastsilverspringes,5,ELEMENTARY SCHOOLS,-77.0152105919,1,301-650-6420
131,Woodlin ES,20910,"{'latitude': '39.0065373884', 'human_address': '{""address"": ""2101 Luzerne Ave"", ""city"": ""Silver Spring"", ""state"": ""MD"", ""zip"": ""20910""}', 'needs_recoding': False, 'longitude': '-77.0467716274'}",Silver Spring,5,2101 Luzerne Ave,3065,6,39.0065373884,http://www.montgomeryschoolsmd.org/schools/woodlines,5,ELEMENTARY SCHOOLS,-77.0467716274,1,301-650-6440
132,Sligo Creek ES,20910,"{'latitude': '39.0004315169', 'human_address': '{""address"": ""500 Schuyler Rd"", ""city"": ""Silver Spring"", ""state"": ""MD"", ""zip"": ""20910""}', 'needs_recoding': False, 'longitude': '-77.0157924626'}",Silver Spring,5,500 Schuyler Rd,3065,7,39.0004315169,http://www.montgomeryschoolsmd.org/schools/sligocreekes,5,ELEMENTARY SCHOOLS,-77.0157924626,1,301-562-2722
133,Piney Branch ES,20912,"{'latitude': '38.9821316553', 'human_address': '{""address"": ""7510 Maple Ave"", ""city"": ""Takoma Park"", ""state"": ""MD"", ""zip"": ""20912""}', 'needs_recoding': False, 'longitude': '-77.0093788825'}",Takoma Park,5,7510 Maple Ave,3062,4,38.9821316553,http://www.montgomeryschoolsmd.org/schools/pineybranches,5,ELEMENTARY SCHOOLS,-77.0093788825,11,301-891-8000
134,Rolling Terrace ES,20912,"{'latitude': '38.995168098', 'human_address': '{""address"": ""705 Bayfield St"", ""city"": ""Takoma Park"", ""state"": ""MD"", ""zip"": ""20912""}', 'needs_recoding': False, 'longitude': '-76.9972611451'}",Takoma Park,5,705 Bayfield St,3062,8,38.995168098,http://www.montgomeryschoolsmd.org/schools/rollinges,5,ELEMENTARY SCHOOLS,-76.9972611451,1,301-431-7600
135,Takoma Park ES,20912,"{'latitude': '38.9826597502', 'human_address': '{""address"": ""7511 Holly Ave"", ""city"": ""Takoma Park"", ""state"": ""MD"", ""zip"": ""20912""}', 'needs_recoding': False, 'longitude': '-77.0124148794'}",Takoma Park,5,7511 Holly Ave,3062,4,38.9826597502,http://www.montgomeryschoolsmd.org/schools/takomaparkes,5,ELEMENTARY SCHOOLS,-77.0124148794,11,301-650-6414
